{"fetched_at":"2026-03-30T06:02:59Z","count":15439,"tles":[{"name":"STARLINK-6260","line1":"1 56416U 23061AU  26087.65934175 -.00000313  00000+0 -80911-5 0  9999","line2":"2 56416  43.0037  68.7736 0001217 267.6968  92.3735 15.02545386159905","category":"Starlink"}]}